GLOBALSTAR M024         
1 25883U 99043A   25256.55284993  .00000018  00000+0  29550-2 0  9997
2 25883  52.0000 181.2378 0000856 263.6719 267.6913 11.10165958124679
GLOBALSTAR M027         
1 25884U 99043B   25256.74570813 -.00000041  00000+0  84065-3 0  9998
2 25884  52.0184 261.2970 0021364 134.1792 226.0761 11.04372581151024
GLOBALSTAR M054         
1 25885U 99043C   25256.64661135 -.00000044  00000+0  68912-3 0  9992
2 25885  52.0181  13.9687 0004791 331.4017  41.9143 11.39220588129138
GLOBALSTAR M053         
1 25886U 99043D   25256.91825493 -.00000056  00000+0  37297-3 0  9997
2 25886  52.0014 325.3403 0003330 227.3810 302.1861 11.27666616129459
GLOBALSTAR M058         
1 25907U 99049A   25256.60289646 -.00000059  00000+0  34046-3 0  9999
2 25907  51.9917 233.0812 0002400  78.3612 281.7492 11.93202883552090
GLOBALSTAR M050         
1 25908U 99049B   25256.64977321 -.00000164  00000+0 -85197-3 0  9999
2 25908  51.9967 234.0229 0008830 207.9893 323.5975 12.07457063158870
GLOBALSTAR M033         
1 25909U 99049C   25256.81210225 -.00000129  00000+0 -36251-3 0  9990
2 25909  51.9898  99.2862 0014810  85.8457 274.4083 12.20298054546561
GLOBALSTAR M055         
1 25910U 99049D   25256.87421100 -.00000095  00000+0 -10755-4 0  9998
2 25910  52.0005 105.5420 0006625 322.8526  37.1867 12.29432105179193
